CUBESAT XI-V            
1 28895U 05043F   22326.82648942  .00000724  00000+0  14492-3 0  9997
2 28895  98.1281  95.9948 0016510   7.0754 353.0679 14.64673874910590
CUTE-1.7+APD II (CO-65) 
1 32785U 08021C   22327.46902907  .00001946  00000+0  20576-3 0  9991
2 32785  97.6793 293.5167 0014229  68.8080 291.4657 14.90265557790238
AAUSAT-II               
1 32788U 08021F   22327.40246086  .00003649  00000+0  30524-3 0  9993
2 32788  97.5485 307.3726 0010430 313.3266  46.7087 14.99042677792333
DELFI-C3 (DO-64)        
1 32789U 08021G   22326.80376667  .00011925  00000+0  58510-3 0  9997
2 32789  97.3268 347.6908 0010999 124.4758 235.7517 15.18193071795919
SEEDS II (CO-66)        
1 32791U 08021J   22326.47039292  .00003380  00000+0  32448-3 0  9991
2 32791  97.6312 297.8845 0013628  30.6682 329.5332 14.93661158790771
SWISSCUBE               
1 35932U 09051B   22326.60649226  .00000659  00000+0  15718-3 0  9991
2 35932  98.5457 186.8115 0006429 285.7589  74.2899 14.57089358699123
BEESAT-1                
1 35933U 09051C   22326.49242010  .00000565  00000+0  13625-3 0  9990
2 35933  98.5392 188.2072 0004791 303.1932  56.8806 14.57077403699185
ITUPSAT1                
1 35935U 09051E   22327.36304391  .00000489  00000+0  12168-3 0  9996
2 35935  98.5492 189.1122 0007084 301.5016  58.5489 14.56171566699031
TISAT 1                 
1 36799U 10035E   22327.06314638  .00001989  00000+0  19347-3 0  9993
2 36799  98.1607 183.6831 0010634 298.5323  61.4825 14.93748206671636
M-CUBED & EXP-1 PRIME   
1 37855U 11061F   22327.45923269  .00009686  00000+0  39430-3 0  9993
2 37855 101.7153 171.3433 0144125 304.8914  53.8827 15.15863163605762
AEROCUBE 4.5A           
1 38767U 12048K   22326.74198841  .00004442  00000+0  31204-3 0  9999
2 38767  64.6653 333.3114 0161765 219.0941 139.8396 14.96467842174454
AEROCUBE 4.5B           
1 38768U 12048L   22326.29413539  .00005137  00000+0  32333-3 0  9990
2 38768  64.6656 285.4400 0145747 214.5277 144.6309 15.01916839174839
STRAND-1                
1 39090U 13009E   22327.44885957  .00000188  00000+0  80409-4 0  9991
2 39090  98.3934 161.3891 0009454 151.4210 208.7496 14.35372308510226
BRITE-AUSTRIA           
1 39091U 13009F   22327.43655052  .00000135  00000+0  61942-4 0  9995
2 39091  98.3955 160.5713 0010799 158.6880 201.4758 14.35331490510240
SOMP                    
1 39134U 13015E   22327.25220888  .00016649  00000+0  49693-3 0  9990
2 39134  64.8599 258.8978 0030927 257.2913 102.4764 15.34301245531540
BEESAT-3                
1 39135U 13015F   22327.30393237  .00011562  00000+0  42126-3 0  9999
2 39135  64.8641 299.0771 0036267 260.3170  99.3864 15.27935459530771
BEESAT-2                
1 39136U 13015G   22327.33551574  .00010685  00000+0  41029-3 0  9999
2 39136  64.8730 308.1815 0024970 291.6019  68.2451 15.26581720530616
NEE-01 PEGASO           
1 39151U 13018B   22327.27092796  .00001202  00000+0  16017-3 0  9992
2 39151  98.0006  72.5070 0017913 100.1240 260.1994 14.81407619517199
ESTCUBE 1               
1 39161U 13021C   22327.16415020  .00000997  00000+0  16175-3 0  9999
2 39161  97.8960  40.1932 0008135 274.3077  85.7227 14.73301279512834
POPACS 1                
1 39268U 13055D   22327.26633642  .00009979  00000+0  23971-3 0  9998
2 39268  80.9961  68.0107 0548684  79.0676 287.1728 14.56374682477835
POPACS 2                
1 39269U 13055E   22326.45688979  .00010119  00000+0  27488-3 0  9997
2 39269  81.0090 130.7257 0633759 241.8661 111.7109 14.36005989472834
POPACS 3                
1 39270U 13055F   22326.82690314  .00005280  00000+0  15863-3 0  9993
2 39270  81.0118 166.1524 0681166 342.1013  15.7183 14.23776016471856
ZACUBE-1 (TSHEPISOSAT)  
1 39417U 13066B   22326.83299572  .00001579  00000+0  19551-3 0  9995
2 39417  97.6583 291.4106 0055332 244.7678 114.7794 14.83037812486595
WNISAT-1                
1 39423U 13066H   22327.44660121  .00000536  00000+0  11421-3 0  9992
2 39423  97.7265 197.0137 0174539   1.3194 358.8419 14.53668006477548
TRITON-1                
1 39427U 13066M   22327.36352805  .00001011  00000+0  16287-3 0  9998
2 39427  97.8240 256.3516 0112217 116.1956 245.0840 14.69466511482301
DELFI-N3XT              
1 39428U 13066N   22326.76851359  .00001590  00000+0  24649-3 0  9993
2 39428  97.8237 254.4435 0116602 130.7679 230.3719 14.70017895481785
GOMX-1                  
1 39430U 13066Q   22327.55030892  .00001434  00000+0  26234-3 0  9994
2 39430  97.7960 225.5809 0146685 263.1384  95.3095 14.60657658479512
CUBEBUG-2 (LO-74)       
1 39440U 13066AA  22327.42850493  .00002096  00000+0  28611-3 0  9994
2 39440  97.7471 278.5093 0077355 336.9216  22.8527 14.77620113484956
NEE-02 KRYSAOR          
1 39441U 13066AB  22326.82875025  .00001408  00000+0  20066-3 0  9998
2 39441  97.7583 275.0136 0079977 353.5623   6.4552 14.76171646483394
FUNCUBE-1 (AO-73)       
1 39444U 13066AE  22326.86294631  .00001941  00000+0  23209-3 0  9997
2 39444  97.6453 293.8749 0054102 231.3807 128.2558 14.84270061485010
UWE-3                   
1 39446U 13066AG  22327.44458587  .00001845  00000+0  24060-3 0  9995
2 39446  97.7076 284.8633 0066319 291.5901  67.8254 14.80227423484562
AEROCUBE 5A             
1 39465U 13072D   22326.44267420  .00037349  00000+0  15016-2 0  9994
2 39465 120.4796 188.2990 0168447  83.6593 278.3632 15.12576113173373
AEROCUBE 5B             
1 39466U 13072E   22327.02650540  .14105350  13584-4  61661-2 0  9995
2 39466 120.4246 307.2558 0017896 140.2326 220.0109 16.21475205175097
BRITE-CA1 (TORONTO)     
1 40020U 14033L   22327.39441410  .00000610  00000+0  11035-3 0  9998
2 40020  97.7979 118.4854 0087679 116.2614 244.7635 14.67287394451074
DUCHIFAT-1              
1 40021U 14033M   22327.40631863  .00003018  00000+0  28755-3 0  9996
2 40021  98.0319 280.7588 0010496 232.1366 127.8904 14.94136351458421
NANOSATC-BR1            
1 40024U 14033Q   22327.40883437  .00003193  00000+0  31446-3 0  9990
2 40024  98.0035 273.2517 0009790 239.8932 120.1316 14.92777021458208
QB50P1                  
1 40025U 14033R   22327.05664707  .00002483  00000+0  25453-3 0  9991
2 40025  97.9751 265.8595 0010135 253.7361 106.2742 14.91361998457906
QB50P2                  
1 40032U 14033Y   22327.54851246  .00001937  00000+0  20306-3 0  9994
2 40032  97.9493 261.1055 0009732 249.4244 110.5930 14.90727306457837
PERSEUS-M2              
1 40037U 14033AD  22327.22171570  .00000866  00000+0  10172-3 0  9999
2 40037  97.8997 248.5703 0012658 278.6595  81.3187 14.87443016457224
PERSEUS-M1              
1 40039U 14033AF  22327.19133609  .00000920  00000+0  10872-3 0  9996
2 40039  97.8880 245.9950 0012506 277.9805  81.9992 14.87043582457101
POLYITAN-1              
1 40042U 14033AJ  22327.39623528  .00003040  00000+0  30853-3 0  9993
2 40042  97.9861 267.6314 0012174 243.7413 116.2555 14.91578895457840
TIGRISAT                
1 40043U 14033AK  22327.08675247  .00000770  00000+0  11762-3 0  9990
2 40043  97.6549 147.8457 0058925   3.7646 356.3996 14.75380532453319
AEROCUBE 6A             
1 40045U 14033AM  22326.77097846  .00001173  00000+0  17001-3 0  9990
2 40045  97.6572 156.7714 0056424 351.4560   8.5684 14.76807066453140
AEROCUBE 6B             
1 40046U 14033AN  22327.10672677  .00001627  00000+0  23001-3 0  9991
2 40046  97.6498 155.5008 0055016 348.3167  11.6764 14.77400195453580
UKUBE-1                 
1 40074U 14037F   22327.43189822  .00002199  00000+0  25775-3 0  9992
2 40074  98.3598 216.2800 0004812 122.2832 237.8853 14.86103263453678
BRITE-PL2 (HEWELIUSZ)   
1 40119U 14049B   22326.79440046  .00000852  00000+0  10478-3 0  9999
2 40119  97.8849  60.8293 0018431  84.9053 275.4265 14.85504629447512
FIREBIRD 4              
1 40378U 15003C   22326.66701741  .00018876  00000+0  47024-3 0  9997
2 40378  99.0798 227.6366 0085487 205.3020 154.4021 15.36553293432651
GRIFEX                  
1 40379U 15003D   22327.26347286  .00010627  00000+0  34244-3 0  9991
2 40379  99.0877 212.2708 0105136 253.1801 105.7879 15.27168092431830
CP10 (EXOCUBE)          
1 40380U 15003E   22326.71174484  .00008598  00000+0  31112-3 0  9995
2 40380  99.0980 203.5384 0115665 282.5101  76.3211 15.22599386431211
TIANWANG 1A (TW-1A)     
1 40928U 15051D   22327.56324887  .00194105  00000+0  79002-3 0  9994
2 40928  97.0154 350.6437 0006576 125.8513  31.2235 15.85657506403177
EXACTVIEW 9             
1 40936U 15052G   22327.43499179  .00001586  00000+0  12886-3 0  9994
2 40936   6.0024 118.6122 0010831 250.3863 109.5095 14.77512087386803
AEROCUBE 5C             
1 40965U 15058B   22327.41835834  .00000735  00000+0  10223-3 0  9990
2 40965  64.7775 328.8255 0171853 146.9088 214.2912 14.76230082172426
AEROCUBE 7              
1 40966U 15058C   22327.08003120  .00000881  00000+0  11738-3 0  9993
2 40966  64.7775 326.5896 0169515 146.6071 214.5866 14.76931065172402
ATHENOXAT 1             
1 41168U 15077C   22327.29769480  .00019574  00000+0  69745-3 0  9990
2 41168  14.9839 349.2501 0008503 312.7690 141.6350 15.26340007384568
GALASSIA                
1 41170U 15077E   22327.39088809  .00011209  00000+0  41375-3 0  9999
2 41170  14.9891 341.4951 0009416 345.8745  14.1313 15.24211122384638
VELOX-II                
1 41171U 15077F   22326.59408757  .00009141  00000+0  39473-3 0  9997
2 41171  14.9913  69.6684 0007404 157.2328 202.8322 15.18536481383662
HORYU-4                 
1 41340U 16012D   22327.54269777  .00003269  00000+0  22153-3 0  9990
2 41340  31.0052  62.3674 0012621 346.0787  13.9500 15.04486354371694
E-ST@R-II               
1 41459U 16025D   22327.43813570  .00012101  00000+0  47318-3 0  9994
2 41459  98.1917 144.9473 0134979  88.4629 273.2057 15.17878750361579
AAUSAT 4                
1 41460U 16025E   22327.09484387  .00020888  00000+0  66851-3 0  9992
2 41460  98.1796 152.4777 0109059  59.2973  59.8621 15.26748445362074
